{
"type": "FeatureCollection",
"name": "shanghai_poi",
"crs": { "type": "name", "properties": { "name": "urn:ogc:def:crs:OGC:1.3:CRS84" } },
"features": [
{ "type": "Feature", "properties": { "amenity": "restaurant", "name": "restaurant_0" }, "geometry": { "type": "Point", "coordinates": [ 121.489963209507792, 31.237042858384594 ] } },
{ "type": "Feature", "properties": { "amenity": "hotel", "name": "hotel_1" }, "geometry": { "type": "Point", "coordinates": [ 121.518559515344919, 31.215919509051822 ] } },
{ "type": "Feature", "properties": { "amenity": "restaurant", "name": "restaurant_2" }, "geometry": { "type": "Point", "coordinates": [ 121.472481491235385, 31.189359671220171 ] } },
{ "type": "Feature", "properties": { "amenity": "restaurant", "name": "restaurant_3" }, "geometry": { "type": "Point", "coordinates": [ 121.464646688973446, 31.231970568746494 ] } },
{ "type": "Feature", "properties": { "amenity": "hotel", "name": "hotel_4" }, "geometry": { "type": "Point", "coordinates": [ 121.508089200939452, 31.222484354667763 ] } },
{ "type": "Feature", "properties": { "amenity": "school", "name": "school_5" }, "geometry": { "type": "Point", "coordinates": [ 121.461646759543655, 31.238194591129719 ] } },
{ "type": "Feature", "properties": { "amenity": "restaurant", "name": "restaurant_6" }, "geometry": { "type": "Point", "coordinates": [ 121.52659541126404, 31.192740346640697 ] } },
{ "type": "Feature", "properties": { "amenity": "hotel", "name": "hotel_7" }, "geometry": { "type": "Point", "coordinates": [ 121.474545997376566, 31.191004270591204 ] } },
{ "type": "Feature", "properties": { "amenity": "bank", "name": "bank_8" }, "geometry": { "type": "Point", "coordinates": [ 121.484339379436761, 31.211485385897934 ] } },
{ "type": "Feature", "properties": { "amenity": "hospital", "name": "hospital_9" }, "geometry": { "type": "Point", "coordinates": [ 121.494555601491371, 31.19747374841188 ] } },
{ "type": "Feature", "properties": { "amenity": "hospital", "name": "hospital_10" }, "geometry": { "type": "Point", "coordinates": [ 121.50894823157779, 31.188369631639123 ] } },
{ "type": "Feature", "properties": { "amenity": "restaurant", "name": "restaurant_11" }, "geometry": { "type": "Point", "coordinates": [ 121.483371571882813, 31.201981710597622 ] } },
{ "type": "Feature", "properties": { "amenity": "school", "name": "school_12" }, "geometry": { "type": "Point", "coordinates": [ 121.496485598737365, 31.227110557683581 ] } },
{ "type": "Feature", "properties": { "amenity": "school", "name": "school_13" }, "geometry": { "type": "Point", "coordinates": [ 121.475973902572662, 31.210854066304815 ] } },
{ "type": "Feature", "properties": { "amenity": "bank", "name": "bank_14" }, "geometry": { "type": "Point", "coordinates": [ 121.507393165508958, 31.182787024763201 ] } },
{ "type": "Feature", "properties": { "amenity": "restaurant", "name": "restaurant_15" }, "geometry": { "type": "Point", "coordinates": [ 121.508603588152113, 31.190231447421237 ] } },
{ "type": "Feature", "properties": { "amenity": "hospital", "name": "hospital_16" }, "geometry": { "type": "Point", "coordinates": [ 121.465204127438824, 31.236933132235198 ] } },
{ "type": "Feature", "properties": { "amenity": "school", "name": "school_17" }, "geometry": { "type": "Point", "coordinates": [ 121.537250562645966, 31.228503840886987 ] } },
{ "type": "Feature", "properties": { "amenity": "restaurant", "name": "restaurant_18" }, "geometry": { "type": "Point", "coordinates": [ 121.484369101533872, 31.185860326840384 ] } },
{ "type": "Feature", "properties": { "amenity": "school", "name": "school_19" }, "geometry": { "type": "Point", "coordinates": [ 121.514738642120975, 31.206409149624374 ] } },
{ "type": "Feature", "properties": { "amenity": "hotel", "name": "hotel_20" }, "geometry": { "type": "Point", "coordinates": [ 121.469763058787578, 31.209710614606674 ] } },
{ "type": "Feature", "properties": { "amenity": "school", "name": "school_21" }, "geometry": { "type": "Point", "coordinates": [ 121.462751081689206, 31.234559224124727 ] } },
{ "type": "Feature", "properties": { "amenity": "hospital", "name": "hospital_22" }, "geometry": { "type": "Point", "coordinates": [ 121.480702398527995, 31.219751337061236 ] } },
{ "type": "Feature", "properties": { "amenity": "cafe", "name": "cafe_23" }, "geometry": { "type": "Point", "coordinates": [ 121.484936886087155, 31.211204081270669 ] } },
{ "type": "Feature", "properties": { "amenity": "bank", "name": "bank_24" }, "geometry": { "type": "Point", "coordinates": [ 121.503736822347463, 31.191091267331529 ] } },
{ "type": "Feature", "properties": { "amenity": "bank", "name": "bank_25" }, "geometry": { "type": "Point", "coordinates": [ 121.537566770221176, 31.226507969401666 ] } },
{ "type": "Feature", "properties": { "amenity": "hospital", "name": "hospital_26" }, "geometry": { "type": "Point", "coordinates": [ 121.535159915325139, 31.233689641025659 ] } },
{ "type": "Feature", "properties": { "amenity": "school", "name": "school_27" }, "geometry": { "type": "Point", "coordinates": [ 121.507831998304894, 31.235312454101386 ] } },
{ "type": "Feature", "properties": { "amenity": "restaurant", "name": "restaurant_28" }, "geometry": { "type": "Point", "coordinates": [ 121.467079400164153, 31.191758971745148 ] } },
{ "type": "Feature", "properties": { "amenity": "school", "name": "school_29" }, "geometry": { "type": "Point", "coordinates": [ 121.463618183112843, 31.199519819845793 ] } },
{ "type": "Feature", "properties": { "amenity": "hospital", "name": "hospital_30" }, "geometry": { "type": "Point", "coordinates": [ 121.49109418317515, 31.196280941906434 ] } },
{ "type": "Feature", "properties": { "amenity": "bank", "name": "bank_31" }, "geometry": { "type": "Point", "coordinates": [ 121.526299000732152, 31.201405199601613 ] } },
{ "type": "Feature", "properties": { "amenity": "school", "name": "school_32" }, "geometry": { "type": "Point", "coordinates": [ 121.482474760774991, 31.212561764989495 ] } },
{ "type": "Feature", "properties": { "amenity": "bank", "name": "bank_33" }, "geometry": { "type": "Point", "coordinates": [ 121.471273937997978, 31.228131818845242 ] } },
{ "type": "Feature", "properties": { "amenity": "restaurant", "name": "restaurant_34" }, "geometry": { "type": "Point", "coordinates": [ 121.465964051494382, 31.239213216196031 ] } },
{ "type": "Feature", "properties": { "amenity": "bank", "name": "bank_35" }, "geometry": { "type": "Point", "coordinates": [ 121.52177958154374, 31.191922940892049 ] } },
{ "type": "Feature", "properties": { "amenity": "bank", "name": "bank_36" }, "geometry": { "type": "Point", "coordinates": [ 121.460441769369879, 31.228927685707287 ] } },
{ "type": "Feature", "properties": { "amenity": "cafe", "name": "cafe_37" }, "geometry": { "type": "Point", "coordinates": [ 121.516548587507813, 31.223740430082458 ] } },
{ "type": "Feature", "properties": { "amenity": "cafe", "name": "cafe_38" }, "geometry": { "type": "Point", "coordinates": [ 121.521701627734885, 31.184442679104045 ] } },
{ "type": "Feature", "properties": { "amenity": "hotel", "name": "hotel_39" }, "geometry": { "type": "Point", "coordinates": [ 121.488677258283545, 31.186952143571506 ] } },
{ "type": "Feature", "properties": { "amenity": "cafe", "name": "cafe_40" }, "geometry": { "type": "Point", "coordinates": [ 121.52904827407005, 31.217397887609653 ] } },
{ "type": "Feature", "properties": { "amenity": "bank", "name": "bank_41" }, "geometry": { "type": "Point", "coordinates": [ 121.486471841988205, 31.183813501017163 ] } },
{ "type": "Feature", "properties": { "amenity": "hospital", "name": "hospital_42" }, "geometry": { "type": "Point", "coordinates": [ 121.484878585737249, 31.199510999321603 ] } },
{ "type": "Feature", "properties": { "amenity": "bank", "name": "bank_43" }, "geometry": { "type": "Point", "coordinates": [ 121.518368494267051, 31.218253448281313 ] } },
{ "type": "Feature", "properties": { "amenity": "hospital", "name": "hospital_44" }, "geometry": { "type": "Point", "coordinates": [ 121.530977019406109, 31.208332895509717 ] } },
{ "type": "Feature", "properties": { "amenity": "hospital", "name": "hospital_45" }, "geometry": { "type": "Point", "coordinates": [ 121.469567539675054, 31.222794687233378 ] } },
{ "type": "Feature", "properties": { "amenity": "cafe", "name": "cafe_46" }, "geometry": { "type": "Point", "coordinates": [ 121.520862803889358, 31.21367663185417 ] } },
{ "type": "Feature", "properties": { "amenity": "school", "name": "school_47" }, "geometry": { "type": "Point", "coordinates": [ 121.521677374396361, 31.209627735781861 ] } },
{ "type": "Feature", "properties": { "amenity": "restaurant", "name": "restaurant_48" }, "geometry": { "type": "Point", "coordinates": [ 121.501818626350556, 31.205652461101511 ] } },
{ "type": "Feature", "properties": { "amenity": "cafe", "name": "cafe_49" }, "geometry": { "type": "Point", "coordinates": [ 121.462033530139522, 31.186473485619597 ] } },
{ "type": "Feature", "properties": { "amenity": "cafe", "name": "cafe_50" }, "geometry": { "type": "Point", "coordinates": [ 121.46251433485493, 31.218184624675825 ] } },
{ "type": "Feature", "properties": { "amenity": "school", "name": "school_51" }, "geometry": { "type": "Point", "coordinates": [ 121.48514847848611, 31.21051424146988 ] } },
{ "type": "Feature", "properties": { "amenity": "restaurant", "name": "restaurant_52" }, "geometry": { "type": "Point", "coordinates": [ 121.53260531791409, 31.194957533748934 ] } },
{ "type": "Feature", "properties": { "amenity": "bank", "name": "bank_53" }, "geometry": { "type": "Point", "coordinates": [ 121.492830633842843, 31.225333068312583 ] } },
{ "type": "Feature", "properties": { "amenity": "hotel", "name": "hotel_54" }, "geometry": { "type": "Point", "coordinates": [ 121.478303853239325, 31.184618794589728 ] } },
{ "type": "Feature", "properties": { "amenity": "hotel", "name": "hotel_55" }, "geometry": { "type": "Point", "coordinates": [ 121.4831801162331, 31.18967327723524 ] } },
{ "type": "Feature", "properties": { "amenity": "bank", "name": "bank_56" }, "geometry": { "type": "Point", "coordinates": [ 121.534375812187406, 31.228487222773865 ] } },
{ "type": "Feature", "properties": { "amenity": "cafe", "name": "cafe_57" }, "geometry": { "type": "Point", "coordinates": [ 121.510672300520838, 31.232287635411261 ] } },
{ "type": "Feature", "properties": { "amenity": "restaurant", "name": "restaurant_58" }, "geometry": { "type": "Point", "coordinates": [ 121.524293766151928, 31.191194203533161 ] } },
{ "type": "Feature", "properties": { "amenity": "cafe", "name": "cafe_59" }, "geometry": { "type": "Point", "coordinates": [ 121.531404719879205, 31.212360534514939 ] } },
{ "type": "Feature", "properties": { "amenity": "hospital", "name": "hospital_60" }, "geometry": { "type": "Point", "coordinates": [ 121.524595212413132, 31.233765477995409 ] } },
{ "type": "Feature", "properties": { "amenity": "cafe", "name": "cafe_61" }, "geometry": { "type": "Point", "coordinates": [ 121.485440277997753, 31.186603115471659 ] } },
{ "type": "Feature", "properties": { "amenity": "cafe", "name": "cafe_62" }, "geometry": { "type": "Point", "coordinates": [ 121.478234813003354, 31.205626467317575 ] } },
{ "type": "Feature", "properties": { "amenity": "bank", "name": "bank_63" }, "geometry": { "type": "Point", "coordinates": [ 121.525441181273806, 31.231643834995378 ] } },
{ "type": "Feature", "properties": { "amenity": "bank", "name": "bank_64" }, "geometry": { "type": "Point", "coordinates": [ 121.460556170442487, 31.210644838154654 ] } },
{ "type": "Feature", "properties": { "amenity": "bank", "name": "bank_65" }, "geometry": { "type": "Point", "coordinates": [ 121.493392880251903, 31.193326468628243 ] } },
{ "type": "Feature", "properties": { "amenity": "hotel", "name": "hotel_66" }, "geometry": { "type": "Point", "coordinates": [ 121.469589229386685, 31.200256910284217 ] } },
{ "type": "Feature", "properties": { "amenity": "hospital", "name": "hospital_67" }, "geometry": { "type": "Point", "coordinates": [ 121.535432776313002, 31.199392175921243 ] } },
{ "type": "Feature", "properties": { "amenity": "bank", "name": "bank_68" }, "geometry": { "type": "Point", "coordinates": [ 121.501503249739471, 31.22218113753371 ] } },
{ "type": "Feature", "properties": { "amenity": "restaurant", "name": "restaurant_69" }, "geometry": { "type": "Point", "coordinates": [ 121.489090368190347, 31.238306924963258 ] } },
{ "type": "Feature", "properties": { "amenity": "hotel", "name": "hotel_70" }, "geometry": { "type": "Point", "coordinates": [ 121.536995783595373, 31.195106937749522 ] } },
{ "type": "Feature", "properties": { "amenity": "school", "name": "school_71" }, "geometry": { "type": "Point", "coordinates": [ 121.499779880471394, 31.198052698589006 ] } },
{ "type": "Feature", "properties": { "amenity": "restaurant", "name": "restaurant_72" }, "geometry": { "type": "Point", "coordinates": [ 121.482787239550191, 31.182213216841273 ] } },
{ "type": "Feature", "properties": { "amenity": "restaurant", "name": "restaurant_73" }, "geometry": { "type": "Point", "coordinates": [ 121.508765146718389, 31.210160741393732 ] } },
{ "type": "Feature", "properties": { "amenity": "bank", "name": "bank_74" }, "geometry": { "type": "Point", "coordinates": [ 121.464118300099997, 31.196718787854195 ] } },
{ "type": "Feature", "properties": { "amenity": "school", "name": "school_75" }, "geometry": { "type": "Point", "coordinates": [ 121.532661270877341, 31.194373713440019 ] } },
{ "type": "Feature", "properties": { "amenity": "school", "name": "school_76" }, "geometry": { "type": "Point", "coordinates": [ 121.4715915897673, 31.209367165616651 ] } },
{ "type": "Feature", "properties": { "amenity": "hotel", "name": "hotel_77" }, "geometry": { "type": "Point", "coordinates": [ 121.538852036328848, 31.194523316290688 ] } },
{ "type": "Feature", "properties": { "amenity": "school", "name": "school_78" }, "geometry": { "type": "Point", "coordinates": [ 121.513770843792472, 31.225697176919724 ] } },
{ "type": "Feature", "properties": { "amenity": "hospital", "name": "hospital_79" }, "geometry": { "type": "Point", "coordinates": [ 121.479011003519389, 31.223692980916709 ] } },
{ "type": "Feature", "properties": { "amenity": "bank", "name": "bank_80" }, "geometry": { "type": "Point", "coordinates": [ 121.489422650617541, 31.217938349835613 ] } },
{ "type": "Feature", "properties": { "amenity": "school", "name": "school_81" }, "geometry": { "type": "Point", "coordinates": [ 121.510682376860871, 31.212146481044485 ] } },
{ "type": "Feature", "properties": { "amenity": "hotel", "name": "hotel_82" }, "geometry": { "type": "Point", "coordinates": [ 121.467223181604353, 31.230118149735354 ] } },
{ "type": "Feature", "properties": { "amenity": "hospital", "name": "hospital_83" }, "geometry": { "type": "Point", "coordinates": [ 121.485662405197743, 31.19119111062399 ] } },
{ "type": "Feature", "properties": { "amenity": "cafe", "name": "cafe_84" }, "geometry": { "type": "Point", "coordinates": [ 121.463262011324375, 31.215453576591294 ] } },
{ "type": "Feature", "properties": { "amenity": "cafe", "name": "cafe_85" }, "geometry": { "type": "Point", "coordinates": [ 121.514205148947383, 31.180995269735671 ] } },
{ "type": "Feature", "properties": { "amenity": "hospital", "name": "hospital_86" }, "geometry": { "type": "Point", "coordinates": [ 121.500967444663942, 31.193589746511876 ] } },
{ "type": "Feature", "properties": { "amenity": "hotel", "name": "hotel_87" }, "geometry": { "type": "Point", "coordinates": [ 121.511613823232764, 31.190461985740299 ] } },
{ "type": "Feature", "properties": { "amenity": "hospital", "name": "hospital_88" }, "geometry": { "type": "Point", "coordinates": [ 121.515275019048204, 31.203204120778032 ] } },
{ "type": "Feature", "properties": { "amenity": "bank", "name": "bank_89" }, "geometry": { "type": "Point", "coordinates": [ 121.534938399098948, 31.188251256648758 ] } },
{ "type": "Feature", "properties": { "amenity": "bank", "name": "bank_90" }, "geometry": { "type": "Point", "coordinates": [ 121.487285308084012, 31.186808411274434 ] } },
{ "type": "Feature", "properties": { "amenity": "cafe", "name": "cafe_91" }, "geometry": { "type": "Point", "coordinates": [ 121.533975489462293, 31.232640361202858 ] } },
{ "type": "Feature", "properties": { "amenity": "school", "name": "school_92" }, "geometry": { "type": "Point", "coordinates": [ 121.480635330217211, 31.219599042762049 ] } },
{ "type": "Feature", "properties": { "amenity": "hotel", "name": "hotel_93" }, "geometry": { "type": "Point", "coordinates": [ 121.5253777760161, 31.213312048695968 ] } },
{ "type": "Feature", "properties": { "amenity": "cafe", "name": "cafe_94" }, "geometry": { "type": "Point", "coordinates": [ 121.502372046268476, 31.194511137454025 ] } },
{ "type": "Feature", "properties": { "amenity": "school", "name": "school_95" }, "geometry": { "type": "Point", "coordinates": [ 121.467448221424462, 31.233832945477197 ] } },
{ "type": "Feature", "properties": { "amenity": "school", "name": "school_96" }, "geometry": { "type": "Point", "coordinates": [ 121.532033444573074, 31.217986087436394 ] } },
{ "type": "Feature", "properties": { "amenity": "bank", "name": "bank_97" }, "geometry": { "type": "Point", "coordinates": [ 121.487122383283889, 31.200952574476759 ] } },
{ "type": "Feature", "properties": { "amenity": "restaurant", "name": "restaurant_98" }, "geometry": { "type": "Point", "coordinates": [ 121.518076454309622, 31.233826615597152 ] } },
{ "type": "Feature", "properties": { "amenity": "restaurant", "name": "restaurant_99" }, "geometry": { "type": "Point", "coordinates": [ 121.530966913941214, 31.226792532751457 ] } },
{ "type": "Feature", "properties": { "amenity": "hospital", "name": "hospital_100" }, "geometry": { "type": "Point", "coordinates": [ 121.511362531692342, 31.185048397899703 ] } },
{ "type": "Feature", "properties": { "amenity": "bank", "name": "bank_101" }, "geometry": { "type": "Point", "coordinates": [ 121.472930297127562, 31.233913251311623 ] } },
{ "type": "Feature", "properties": { "amenity": "school", "name": "school_102" }, "geometry": { "type": "Point", "coordinates": [ 121.508514324772761, 31.180551823096998 ] } },
{ "type": "Feature", "properties": { "amenity": "hotel", "name": "hotel_103" }, "geometry": { "type": "Point", "coordinates": [ 121.468117723429273, 31.219810106146483 ] } },
{ "type": "Feature", "properties": { "amenity": "restaurant", "name": "restaurant_104" }, "geometry": { "type": "Point", "coordinates": [ 121.460404926707696, 31.189648483085051 ] } },
{ "type": "Feature", "properties": { "amenity": "school", "name": "school_105" }, "geometry": { "type": "Point", "coordinates": [ 121.503898703149332, 31.221513711861562 ] } },
{ "type": "Feature", "properties": { "amenity": "restaurant", "name": "restaurant_106" }, "geometry": { "type": "Point", "coordinates": [ 121.512156900760203, 31.193456158567631 ] } },
{ "type": "Feature", "properties": { "amenity": "restaurant", "name": "restaurant_107" }, "geometry": { "type": "Point", "coordinates": [ 121.516974337707808, 31.194234945249807 ] } },
{ "type": "Feature", "properties": { "amenity": "restaurant", "name": "restaurant_108" }, "geometry": { "type": "Point", "coordinates": [ 121.48603197585274, 31.224789484307081 ] } },
{ "type": "Feature", "properties": { "amenity": "hotel", "name": "hotel_109" }, "geometry": { "type": "Point", "coordinates": [ 121.511970631923774, 31.230953404629648 ] } },
{ "type": "Feature", "properties": { "amenity": "bank", "name": "bank_110" }, "geometry": { "type": "Point", "coordinates": [ 121.512609031384031, 31.214098516200128 ] } },
{ "type": "Feature", "properties": { "amenity": "hotel", "name": "hotel_111" }, "geometry": { "type": "Point", "coordinates": [ 121.467493981426244, 31.202062948183567 ] } },
{ "type": "Feature", "properties": { "amenity": "cafe", "name": "cafe_112" }, "geometry": { "type": "Point", "coordinates": [ 121.481216189414539, 31.194639378602744 ] } },
{ "type": "Feature", "properties": { "amenity": "school", "name": "school_113" }, "geometry": { "type": "Point", "coordinates": [ 121.537840844380199, 31.203585863480004 ] } },
{ "type": "Feature", "properties": { "amenity": "bank", "name": "bank_114" }, "geometry": { "type": "Point", "coordinates": [ 121.531363724414177, 31.217868317559834 ] } },
{ "type": "Feature", "properties": { "amenity": "bank", "name": "bank_115" }, "geometry": { "type": "Point", "coordinates": [ 121.523584904283339, 31.210158225586312 ] } },
{ "type": "Feature", "properties": { "amenity": "bank", "name": "bank_116" }, "geometry": { "type": "Point", "coordinates": [ 121.506152310770105, 31.209551061629131 ] } },
{ "type": "Feature", "properties": { "amenity": "bank", "name": "bank_117" }, "geometry": { "type": "Point", "coordinates": [ 121.475619439023845, 31.223347126915691 ] } },
{ "type": "Feature", "properties": { "amenity": "hotel", "name": "hotel_118" }, "geometry": { "type": "Point", "coordinates": [ 121.482461788995266, 31.181458957985885 ] } },
{ "type": "Feature", "properties": { "amenity": "bank", "name": "bank_119" }, "geometry": { "type": "Point", "coordinates": [ 121.511637783672569, 31.190626640764421 ] } },
{ "type": "Feature", "properties": { "amenity": "hospital", "name": "hospital_120" }, "geometry": { "type": "Point", "coordinates": [ 121.535236686748235, 31.237235714620155 ] } },
{ "type": "Feature", "properties": { "amenity": "school", "name": "school_121" }, "geometry": { "type": "Point", "coordinates": [ 121.533189151217641, 31.202209522015327 ] } },
{ "type": "Feature", "properties": { "amenity": "bank", "name": "bank_122" }, "geometry": { "type": "Point", "coordinates": [ 121.461236529322306, 31.235699113755263 ] } },
{ "type": "Feature", "properties": { "amenity": "school", "name": "school_123" }, "geometry": { "type": "Point", "coordinates": [ 121.494254731865382, 31.237999289142618 ] } },
{ "type": "Feature", "properties": { "amenity": "hospital", "name": "hospital_124" }, "geometry": { "type": "Point", "coordinates": [ 121.537089598167142, 31.231180567328039 ] } },
{ "type": "Feature", "properties": { "amenity": "hospital", "name": "hospital_125" }, "geometry": { "type": "Point", "coordinates": [ 121.483555911365571, 31.203105863716114 ] } },
{ "type": "Feature", "properties": { "amenity": "school", "name": "school_126" }, "geometry": { "type": "Point", "coordinates": [ 121.528090933721359, 31.199015320309375 ] } },
{ "type": "Feature", "properties": { "amenity": "restaurant", "name": "restaurant_127" }, "geometry": { "type": "Point", "coordinates": [ 121.473559419734883, 31.213408075747498 ] } },
{ "type": "Feature", "properties": { "amenity": "cafe", "name": "cafe_128" }, "geometry": { "type": "Point", "coordinates": [ 121.534892381932863, 31.221761787800496 ] } },
{ "type": "Feature", "properties": { "amenity": "restaurant", "name": "restaurant_129" }, "geometry": { "type": "Point", "coordinates": [ 121.505604893607156, 31.185830589626246 ] } },
{ "type": "Feature", "properties": { "amenity": "restaurant", "name": "restaurant_130" }, "geometry": { "type": "Point", "coordinates": [ 121.509200578135932, 31.239403231006253 ] } },
{ "type": "Feature", "properties": { "amenity": "hotel", "name": "hotel_131" }, "geometry": { "type": "Point", "coordinates": [ 121.47120672121892, 31.211099779141822 ] } },
{ "type": "Feature", "properties": { "amenity": "restaurant", "name": "restaurant_132" }, "geometry": { "type": "Point", "coordinates": [ 121.530189845754236, 31.224446117065252 ] } },
{ "type": "Feature", "properties": { "amenity": "bank", "name": "bank_133" }, "geometry": { "type": "Point", "coordinates": [ 121.515761259279628, 31.222149045039224 ] } },
{ "type": "Feature", "properties": { "amenity": "hotel", "name": "hotel_134" }, "geometry": { "type": "Point", "coordinates": [ 121.488759292097583, 31.197615510655869 ] } },
{ "type": "Feature", "properties": { "amenity": "hotel", "name": "hotel_135" }, "geometry": { "type": "Point", "coordinates": [ 121.524748892438282, 31.228606803680748 ] } },
{ "type": "Feature", "properties": { "amenity": "hospital", "name": "hospital_136" }, "geometry": { "type": "Point", "coordinates": [ 121.529365785486419, 31.234794433153386 ] } },
{ "type": "Feature", "properties": { "amenity": "restaurant", "name": "restaurant_137" }, "geometry": { "type": "Point", "coordinates": [ 121.500907391908882, 31.210090977681229 ] } },
{ "type": "Feature", "properties": { "amenity": "hospital", "name": "hospital_138" }, "geometry": { "type": "Point", "coordinates": [ 121.523863614317349, 31.218997835846665 ] } },
{ "type": "Feature", "properties": { "amenity": "school", "name": "school_139" }, "geometry": { "type": "Point", "coordinates": [ 121.51615735018062, 31.227747560166165 ] } },
{ "type": "Feature", "properties": { "amenity": "cafe", "name": "cafe_140" }, "geometry": { "type": "Point", "coordinates": [ 121.531200427345411, 31.200279709411092 ] } },
{ "type": "Feature", "properties": { "amenity": "hotel", "name": "hotel_141" }, "geometry": { "type": "Point", "coordinates": [ 121.49004663621119, 31.185638916390452 ] } },
{ "type": "Feature", "properties": { "amenity": "school", "name": "school_142" }, "geometry": { "type": "Point", "coordinates": [ 121.506262411279693, 31.182156536427804 ] } },
{ "type": "Feature", "properties": { "amenity": "school", "name": "school_143" }, "geometry": { "type": "Point", "coordinates": [ 121.497247841450601, 31.212558678082452 ] } },
{ "type": "Feature", "properties": { "amenity": "bank", "name": "bank_144" }, "geometry": { "type": "Point", "coordinates": [ 121.482923300170256, 31.215449995634138 ] } },
{ "type": "Feature", "properties": { "amenity": "cafe", "name": "cafe_145" }, "geometry": { "type": "Point", "coordinates": [ 121.462440019995114, 31.182240891324952 ] } },
{ "type": "Feature", "properties": { "amenity": "school", "name": "school_146" }, "geometry": { "type": "Point", "coordinates": [ 121.525808044852781, 31.201611438484676 ] } },
{ "type": "Feature", "properties": { "amenity": "school", "name": "school_147" }, "geometry": { "type": "Point", "coordinates": [ 121.470164841012149, 31.211334595603287 ] } },
{ "type": "Feature", "properties": { "amenity": "cafe", "name": "cafe_148" }, "geometry": { "type": "Point", "coordinates": [ 121.521599484247886, 31.192949261649812 ] } },
{ "type": "Feature", "properties": { "amenity": "cafe", "name": "cafe_149" }, "geometry": { "type": "Point", "coordinates": [ 121.509831238065516, 31.185120847899626 ] } },
{ "type": "Feature", "properties": { "amenity": "school", "name": "school_150" }, "geometry": { "type": "Point", "coordinates": [ 121.464134537693482, 31.211881277894086 ] } },
{ "type": "Feature", "properties": { "amenity": "cafe", "name": "cafe_151" }, "geometry": { "type": "Point", "coordinates": [ 121.503250809728812, 31.218245794089892 ] } },
{ "type": "Feature", "properties": { "amenity": "school", "name": "school_152" }, "geometry": { "type": "Point", "coordinates": [ 121.518087306697822, 31.238551124767749 ] } },
{ "type": "Feature", "properties": { "amenity": "school", "name": "school_153" }, "geometry": { "type": "Point", "coordinates": [ 121.501304027864094, 31.199377388376472 ] } },
{ "type": "Feature", "properties": { "amenity": "bank", "name": "bank_154" }, "geometry": { "type": "Point", "coordinates": [ 121.523614895581503, 31.196249935075723 ] } },
{ "type": "Feature", "properties": { "amenity": "restaurant", "name": "restaurant_155" }, "geometry": { "type": "Point", "coordinates": [ 121.495117713656455, 31.184707382880536 ] } },
{ "type": "Feature", "properties": { "amenity": "school", "name": "school_156" }, "geometry": { "type": "Point", "coordinates": [ 121.462028059473226, 31.237758904880675 ] } },
{ "type": "Feature", "properties": { "amenity": "hospital", "name": "hospital_157" }, "geometry": { "type": "Point", "coordinates": [ 121.526878409640986, 31.22175845236562 ] } },
{ "type": "Feature", "properties": { "amenity": "hotel", "name": "hotel_158" }, "geometry": { "type": "Point", "coordinates": [ 121.492716235553146, 31.190397659204251 ] } },
{ "type": "Feature", "properties": { "amenity": "restaurant", "name": "restaurant_159" }, "geometry": { "type": "Point", "coordinates": [ 121.472514963413687, 31.195014573889875 ] } },
{ "type": "Feature", "properties": { "amenity": "restaurant", "name": "restaurant_160" }, "geometry": { "type": "Point", "coordinates": [ 121.50393813317649, 31.222875755362004 ] } },
{ "type": "Feature", "properties": { "amenity": "restaurant", "name": "restaurant_161" }, "geometry": { "type": "Point", "coordinates": [ 121.512815790137424, 31.196796033816756 ] } },
{ "type": "Feature", "properties": { "amenity": "bank", "name": "bank_162" }, "geometry": { "type": "Point", "coordinates": [ 121.536389222453067, 31.224273815001744 ] } },
{ "type": "Feature", "properties": { "amenity": "school", "name": "school_163" }, "geometry": { "type": "Point", "coordinates": [ 121.504348324200919, 31.21670324477406 ] } },
{ "type": "Feature", "properties": { "amenity": "bank", "name": "bank_164" }, "geometry": { "type": "Point", "coordinates": [ 121.493568004994216, 31.19486385937007 ] } },
{ "type": "Feature", "properties": { "amenity": "school", "name": "school_165" }, "geometry": { "type": "Point", "coordinates": [ 121.488477814292096, 31.225470766627861 ] } },
{ "type": "Feature", "properties": { "amenity": "bank", "name": "bank_166" }, "geometry": { "type": "Point", "coordinates": [ 121.461151479090375, 31.186964358430416 ] } },
{ "type": "Feature", "properties": { "amenity": "bank", "name": "bank_167" }, "geometry": { "type": "Point", "coordinates": [ 121.463680211361734, 31.182443728139138 ] } },
{ "type": "Feature", "properties": { "amenity": "hotel", "name": "hotel_168" }, "geometry": { "type": "Point", "coordinates": [ 121.528436846720879, 31.222219471562799 ] } },
{ "type": "Feature", "properties": { "amenity": "hospital", "name": "hospital_169" }, "geometry": { "type": "Point", "coordinates": [ 121.497933906326992, 31.18587004963906 ] } },
{ "type": "Feature", "properties": { "amenity": "bank", "name": "bank_170" }, "geometry": { "type": "Point", "coordinates": [ 121.499329270009341, 31.208408306246834 ] } },
{ "type": "Feature", "properties": { "amenity": "hotel", "name": "hotel_171" }, "geometry": { "type": "Point", "coordinates": [ 121.473856149592791, 31.206031098954277 ] } },
{ "type": "Feature", "properties": { "amenity": "cafe", "name": "cafe_172" }, "geometry": { "type": "Point", "coordinates": [ 121.491880378751787, 31.216951005883132 ] } },
{ "type": "Feature", "properties": { "amenity": "hospital", "name": "hospital_173" }, "geometry": { "type": "Point", "coordinates": [ 121.510807492069418, 31.182718240586322 ] } },
{ "type": "Feature", "properties": { "amenity": "bank", "name": "bank_174" }, "geometry": { "type": "Point", "coordinates": [ 121.48996900917011, 31.217551594942854 ] } },
{ "type": "Feature", "properties": { "amenity": "restaurant", "name": "restaurant_175" }, "geometry": { "type": "Point", "coordinates": [ 121.50025090068641, 31.231389390471296 ] } },
{ "type": "Feature", "properties": { "amenity": "cafe", "name": "cafe_176" }, "geometry": { "type": "Point", "coordinates": [ 121.512695490529524, 31.189776065624887 ] } },
{ "type": "Feature", "properties": { "amenity": "cafe", "name": "cafe_177" }, "geometry": { "type": "Point", "coordinates": [ 121.465645499792032, 31.218545156692379 ] } },
{ "type": "Feature", "properties": { "amenity": "hotel", "name": "hotel_178" }, "geometry": { "type": "Point", "coordinates": [ 121.462120904843317, 31.215146534876407 ] } },
{ "type": "Feature", "properties": { "amenity": "cafe", "name": "cafe_179" }, "geometry": { "type": "Point", "coordinates": [ 121.535218419314006, 31.214528450672553 ] } },
{ "type": "Feature", "properties": { "amenity": "hospital", "name": "hospital_180" }, "geometry": { "type": "Point", "coordinates": [ 121.491053594096513, 31.218597293106541 ] } },
{ "type": "Feature", "properties": { "amenity": "bank", "name": "bank_181" }, "geometry": { "type": "Point", "coordinates": [ 121.496660231239318, 31.212737007358957 ] } },
{ "type": "Feature", "properties": { "amenity": "bank", "name": "bank_182" }, "geometry": { "type": "Point", "coordinates": [ 121.535317184702123, 31.203166158268047 ] } },
{ "type": "Feature", "properties": { "amenity": "restaurant", "name": "restaurant_183" }, "geometry": { "type": "Point", "coordinates": [ 121.536895245105924, 31.234321038517361 ] } },
{ "type": "Feature", "properties": { "amenity": "hotel", "name": "hotel_184" }, "geometry": { "type": "Point", "coordinates": [ 121.475663290783146, 31.184161678052508 ] } },
{ "type": "Feature", "properties": { "amenity": "restaurant", "name": "restaurant_185" }, "geometry": { "type": "Point", "coordinates": [ 121.468062240110186, 31.181093309539094 ] } },
{ "type": "Feature", "properties": { "amenity": "cafe", "name": "cafe_186" }, "geometry": { "type": "Point", "coordinates": [ 121.467555436860465, 31.22098040640498 ] } },
{ "type": "Feature", "properties": { "amenity": "restaurant", "name": "restaurant_187" }, "geometry": { "type": "Point", "coordinates": [ 121.46569509187681, 31.199138537817625 ] } },
{ "type": "Feature", "properties": { "amenity": "hospital", "name": "hospital_188" }, "geometry": { "type": "Point", "coordinates": [ 121.527590024877554, 31.181396316144149 ] } },
{ "type": "Feature", "properties": { "amenity": "bank", "name": "bank_189" }, "geometry": { "type": "Point", "coordinates": [ 121.525157478607113, 31.196911286486404 ] } },
{ "type": "Feature", "properties": { "amenity": "cafe", "name": "cafe_190" }, "geometry": { "type": "Point", "coordinates": [ 121.469453186209734, 31.221804229921847 ] } },
{ "type": "Feature", "properties": { "amenity": "restaurant", "name": "restaurant_191" }, "geometry": { "type": "Point", "coordinates": [ 121.510315427742398, 31.23264832081162 ] } },
{ "type": "Feature", "properties": { "amenity": "hotel", "name": "hotel_192" }, "geometry": { "type": "Point", "coordinates": [ 121.518805683504311, 31.228208855823091 ] } },
{ "type": "Feature", "properties": { "amenity": "hospital", "name": "hospital_193" }, "geometry": { "type": "Point", "coordinates": [ 121.482562765805696, 31.190646372626784 ] } },
{ "type": "Feature", "properties": { "amenity": "hospital", "name": "hospital_194" }, "geometry": { "type": "Point", "coordinates": [ 121.520049180131267, 31.228410084356035 ] } },
{ "type": "Feature", "properties": { "amenity": "restaurant", "name": "restaurant_195" }, "geometry": { "type": "Point", "coordinates": [ 121.539240411360055, 31.204757060614686 ] } },
{ "type": "Feature", "properties": { "amenity": "bank", "name": "bank_196" }, "geometry": { "type": "Point", "coordinates": [ 121.489761446863426, 31.226584777644518 ] } },
{ "type": "Feature", "properties": { "amenity": "restaurant", "name": "restaurant_197" }, "geometry": { "type": "Point", "coordinates": [ 121.487264283220242, 31.235845439536213 ] } },
{ "type": "Feature", "properties": { "amenity": "cafe", "name": "cafe_198" }, "geometry": { "type": "Point", "coordinates": [ 121.528673020147451, 31.205739641642499 ] } },
{ "type": "Feature", "properties": { "amenity": "restaurant", "name": "restaurant_199" }, "geometry": { "type": "Point", "coordinates": [ 121.520069685423323, 31.225272572445078 ] } }
]
}
